STARLINK-32556          
1 61858U 24202P   26068.46196539 -.00000709  00000+0 -16253-4 0  9991
2 61858  43.0009 239.2027 0001320 255.5118 104.5587 15.27573886 75301
PELICAN-6               
1 66703U 25276AP  26068.70709364  .00077979  00000+0  29726-2 0  9998
2 66703  97.4276 144.2072 0003569 157.8575 202.2819 15.26377980 15334
